CCSDS_OMM_VERS = 2.0
CREATION_DATE  = 
ORIGINATOR     = 

OBJECT_NAME    = STARLINK-35343
OBJECT_ID      = 2026-003A
CENTER_NAME    = EARTH
REF_FRAME      = TEME
TIME_SYSTEM    = UTC
MEAN_ELEMENT_THEORY = SGP/SGP4

EPOCH          = 2026-02-04T06:00:04.000320
MEAN_MOTION    = 15.50592244
ECCENTRICITY   = .00013949
INCLINATION    = 42.9994
RA_OF_ASC_NODE = 57.1262
ARG_OF_PERICENTER = 262.3342
MEAN_ANOMALY   = 177.4564

EPHEMERIS_TYPE = 0
CLASSIFICATION_TYPE = U
NORAD_CAT_ID   = 67334
ELEMENT_SET_NO = 999
REV_AT_EPOCH   = 524
BSTAR          = -.1218638E-2
MEAN_MOTION_DOT = -.71219E-3
MEAN_MOTION_DDOT = 0

CCSDS_OMM_VERS = 2.0
CREATION_DATE  = 
ORIGINATOR     = 

OBJECT_NAME    = STARLINK-36486
OBJECT_ID      = 2026-003B
CENTER_NAME    = EARTH
REF_FRAME      = TEME
TIME_SYSTEM    = UTC
MEAN_ELEMENT_THEORY = SGP/SGP4

EPOCH          = 2026-02-04T06:00:04.000320
MEAN_MOTION    = 15.50595145
ECCENTRICITY   = .00013655
INCLINATION    = 42.9993
RA_OF_ASC_NODE = 57.1213
ARG_OF_PERICENTER = 261.8709
MEAN_ANOMALY   = 179.8337

EPHEMERIS_TYPE = 0
CLASSIFICATION_TYPE = U
NORAD_CAT_ID   = 67335
ELEMENT_SET_NO = 999
REV_AT_EPOCH   = 530
BSTAR          = -.12477834E-2
MEAN_MOTION_DOT = -.72906E-3
MEAN_MOTION_DDOT = 0

CCSDS_OMM_VERS = 2.0
CREATION_DATE  = 
ORIGINATOR     = 

OBJECT_NAME    = STARLINK-36480
OBJECT_ID      = 2026-003C
CENTER_NAME    = EARTH
REF_FRAME      = TEME
TIME_SYSTEM    = UTC
MEAN_ELEMENT_THEORY = SGP/SGP4

EPOCH          = 2026-02-04T06:00:04.000320
MEAN_MOTION    = 15.50595840
ECCENTRICITY   = .00012983
INCLINATION    = 42.9993
RA_OF_ASC_NODE = 57.1169
ARG_OF_PERICENTER = 264.3552
MEAN_ANOMALY   = 179.2685

EPHEMERIS_TYPE = 0
CLASSIFICATION_TYPE = U
NORAD_CAT_ID   = 67336
ELEMENT_SET_NO = 999
REV_AT_EPOCH   = 530
BSTAR          = -.12772589E-2
MEAN_MOTION_DOT = -.74606E-3
MEAN_MOTION_DDOT = 0

CCSDS_OMM_VERS = 2.0
CREATION_DATE  = 
ORIGINATOR     = 

OBJECT_NAME    = STARLINK-36410
OBJECT_ID      = 2026-003D
CENTER_NAME    = EARTH
REF_FRAME      = TEME
TIME_SYSTEM    = UTC
MEAN_ELEMENT_THEORY = SGP/SGP4

EPOCH          = 2026-02-04T06:00:04.000320
MEAN_MOTION    = 15.50598370
ECCENTRICITY   = .00015949
INCLINATION    = 42.9993
RA_OF_ASC_NODE = 57.1117
ARG_OF_PERICENTER = 263.5139
MEAN_ANOMALY   = 182.0246

EPHEMERIS_TYPE = 0
CLASSIFICATION_TYPE = U
NORAD_CAT_ID   = 67337
ELEMENT_SET_NO = 999
REV_AT_EPOCH   = 530
BSTAR          = -.13650949E-2
MEAN_MOTION_DOT = -.79671E-3
MEAN_MOTION_DDOT = 0

CCSDS_OMM_VERS = 2.0
CREATION_DATE  = 
ORIGINATOR     = 

OBJECT_NAME    = STARLINK-36413
OBJECT_ID      = 2026-003E
CENTER_NAME    = EARTH
REF_FRAME      = TEME
TIME_SYSTEM    = UTC
MEAN_ELEMENT_THEORY = SGP/SGP4

EPOCH          = 2026-02-04T06:00:04.000320
MEAN_MOTION    = 15.50597528
ECCENTRICITY   = .00012311
INCLINATION    = 42.9994
RA_OF_ASC_NODE = 57.1071
ARG_OF_PERICENTER = 270.6103
MEAN_ANOMALY   = 176.8478

EPHEMERIS_TYPE = 0
CLASSIFICATION_TYPE = U
NORAD_CAT_ID   = 67338
ELEMENT_SET_NO = 999
REV_AT_EPOCH   = 530
BSTAR          = -.13086295E-2
MEAN_MOTION_DOT = -.76416E-3
MEAN_MOTION_DDOT = 0

CCSDS_OMM_VERS = 2.0
CREATION_DATE  = 
ORIGINATOR     = 

OBJECT_NAME    = STARLINK-36451
OBJECT_ID      = 2026-003F
CENTER_NAME    = EARTH
REF_FRAME      = TEME
TIME_SYSTEM    = UTC
MEAN_ELEMENT_THEORY = SGP/SGP4

EPOCH          = 2026-02-04T06:00:04.000320
MEAN_MOTION    = 15.50596361
ECCENTRICITY   = .00012765
INCLINATION    = 42.9994
RA_OF_ASC_NODE = 57.1018
ARG_OF_PERICENTER = 266.8363
MEAN_ANOMALY   = 182.5383

EPHEMERIS_TYPE = 0
CLASSIFICATION_TYPE = U
NORAD_CAT_ID   = 67339
ELEMENT_SET_NO = 999
REV_AT_EPOCH   = 530
BSTAR          = -.13024085E-2
MEAN_MOTION_DOT = -.76055E-3
MEAN_MOTION_DDOT = 0

CCSDS_OMM_VERS = 2.0
CREATION_DATE  = 
ORIGINATOR     = 

OBJECT_NAME    = STARLINK-36339
OBJECT_ID      = 2026-003G
CENTER_NAME    = EARTH
REF_FRAME      = TEME
TIME_SYSTEM    = UTC
MEAN_ELEMENT_THEORY = SGP/SGP4

EPOCH          = 2026-02-04T06:00:04.000320
MEAN_MOTION    = 15.50594539
ECCENTRICITY   = .00012762
INCLINATION    = 42.9993
RA_OF_ASC_NODE = 57.0974
ARG_OF_PERICENTER = 267.4860
MEAN_ANOMALY   = 183.8050

EPHEMERIS_TYPE = 0
CLASSIFICATION_TYPE = U
NORAD_CAT_ID   = 67340
ELEMENT_SET_NO = 999
REV_AT_EPOCH   = 530
BSTAR          = -.12441646E-2
MEAN_MOTION_DOT = -.72696E-3
MEAN_MOTION_DDOT = 0

CCSDS_OMM_VERS = 2.0
CREATION_DATE  = 
ORIGINATOR     = 

OBJECT_NAME    = STARLINK-36453
OBJECT_ID      = 2026-003H
CENTER_NAME    = EARTH
REF_FRAME      = TEME
TIME_SYSTEM    = UTC
MEAN_ELEMENT_THEORY = SGP/SGP4

EPOCH          = 2026-02-04T06:00:04.000320
MEAN_MOTION    = 15.50587702
ECCENTRICITY   = .00013293
INCLINATION    = 42.9994
RA_OF_ASC_NODE = 57.0918
ARG_OF_PERICENTER = 265.9784
MEAN_ANOMALY   = 187.2339

EPHEMERIS_TYPE = 0
CLASSIFICATION_TYPE = U
NORAD_CAT_ID   = 67341
ELEMENT_SET_NO = 999
REV_AT_EPOCH   = 530
BSTAR          = -.10735975E-2
MEAN_MOTION_DOT = -.6284E-3
MEAN_MOTION_DDOT = 0

CCSDS_OMM_VERS = 2.0
CREATION_DATE  = 
ORIGINATOR     = 

OBJECT_NAME    = STARLINK-36432
OBJECT_ID      = 2026-003J
CENTER_NAME    = EARTH
REF_FRAME      = TEME
TIME_SYSTEM    = UTC
MEAN_ELEMENT_THEORY = SGP/SGP4

EPOCH          = 2026-02-04T06:00:04.000320
MEAN_MOTION    = 15.50593947
ECCENTRICITY   = .00012717
INCLINATION    = 42.9994
RA_OF_ASC_NODE = 57.0874
ARG_OF_PERICENTER = 266.7484
MEAN_ANOMALY   = 188.3758

EPHEMERIS_TYPE = 0
CLASSIFICATION_TYPE = U
NORAD_CAT_ID   = 67342
ELEMENT_SET_NO = 999
REV_AT_EPOCH   = 529
BSTAR          = -.12488889E-2
MEAN_MOTION_DOT = -.72966E-3
MEAN_MOTION_DDOT = 0

CCSDS_OMM_VERS = 2.0
CREATION_DATE  = 
ORIGINATOR     = 

OBJECT_NAME    = STARLINK-36458
OBJECT_ID      = 2026-003K
CENTER_NAME    = EARTH
REF_FRAME      = TEME
TIME_SYSTEM    = UTC
MEAN_ELEMENT_THEORY = SGP/SGP4

EPOCH          = 2026-02-04T06:00:04.000320
MEAN_MOTION    = 15.50591299
ECCENTRICITY   = .0001231
INCLINATION    = 42.9994
RA_OF_ASC_NODE = 57.0828
ARG_OF_PERICENTER = 265.5644
MEAN_ANOMALY   = 191.4788

EPHEMERIS_TYPE = 0
CLASSIFICATION_TYPE = U
NORAD_CAT_ID   = 67343
ELEMENT_SET_NO = 999
REV_AT_EPOCH   = 530
BSTAR          = -.11458665E-2
MEAN_MOTION_DOT = -.67019E-3
MEAN_MOTION_DDOT = 0

CCSDS_OMM_VERS = 2.0
CREATION_DATE  = 
ORIGINATOR     = 

OBJECT_NAME    = STARLINK-36422
OBJECT_ID      = 2026-003L
CENTER_NAME    = EARTH
REF_FRAME      = TEME
TIME_SYSTEM    = UTC
MEAN_ELEMENT_THEORY = SGP/SGP4

EPOCH          = 2026-02-04T06:00:04.000320
MEAN_MOTION    = 15.50592399
ECCENTRICITY   = .00012196
INCLINATION    = 42.9994
RA_OF_ASC_NODE = 57.0768
ARG_OF_PERICENTER = 268.6515
MEAN_ANOMALY   = 190.3095

EPHEMERIS_TYPE = 0
CLASSIFICATION_TYPE = U
NORAD_CAT_ID   = 67344
ELEMENT_SET_NO = 999
REV_AT_EPOCH   = 529
BSTAR          = -.12369805E-2
MEAN_MOTION_DOT = -.72276E-3
MEAN_MOTION_DDOT = 0

CCSDS_OMM_VERS = 2.0
CREATION_DATE  = 
ORIGINATOR     = 

OBJECT_NAME    = STARLINK-35676
OBJECT_ID      = 2026-003M
CENTER_NAME    = EARTH
REF_FRAME      = TEME
TIME_SYSTEM    = UTC
MEAN_ELEMENT_THEORY = SGP/SGP4

EPOCH          = 2026-02-04T06:00:04.000320
MEAN_MOTION    = 15.50594650
ECCENTRICITY   = .00014821
INCLINATION    = 42.9993
RA_OF_ASC_NODE = 57.0728
ARG_OF_PERICENTER = 265.9270
MEAN_ANOMALY   = 194.9499

EPHEMERIS_TYPE = 0
CLASSIFICATION_TYPE = U
NORAD_CAT_ID   = 67345
ELEMENT_SET_NO = 999
REV_AT_EPOCH   = 529
BSTAR          = -.12606855E-2
MEAN_MOTION_DOT = -.73649E-3
MEAN_MOTION_DDOT = 0

