STARLINK-35343          
1 67334U 26003A   26035.25004630 -.00071219  00000+0 -12186-2 0  9991
2 67334  42.9994  57.1262 0001394 262.3342 177.4564 15.50592244  5246
STARLINK-36486          
1 67335U 26003B   26035.25004630 -.00072906  00000+0 -12478-2 0  9990
2 67335  42.9993  57.1213 0001365 261.8709 179.8337 15.50595145  5305
STARLINK-36480          
1 67336U 26003C   26035.25004630 -.00074606  00000+0 -12773-2 0  9998
2 67336  42.9993  57.1169 0001298 264.3552 179.2685 15.50595840  5307
STARLINK-36410          
1 67337U 26003D   26035.25004630 -.00079671  00000+0 -13651-2 0  9992
2 67337  42.9993  57.1117 0001594 263.5139 182.0246 15.50598370  5308
STARLINK-36413          
1 67338U 26003E   26035.25004630 -.00076416  00000+0 -13086-2 0  9999
2 67338  42.9994  57.1071 0001231 270.6103 176.8478 15.50597528  5309
STARLINK-36451          
1 67339U 26003F   26035.25004630 -.00076055  00000+0 -13024-2 0  9991
2 67339  42.9994  57.1018 0001276 266.8363 182.5383 15.50596361  5308
STARLINK-36339          
1 67340U 26003G   26035.25004630 -.00072696  00000+0 -12442-2 0  9993
2 67340  42.9993  57.0974 0001276 267.4860 183.8050 15.50594539  5308
STARLINK-36453          
1 67341U 26003H   26035.25004630 -.00062840  00000+0 -10736-2 0  9998
2 67341  42.9994  57.0918 0001329 265.9784 187.2339 15.50587702  5307
STARLINK-36432          
1 67342U 26003J   26035.25004630 -.00072966  00000+0 -12489-2 0  9996
2 67342  42.9994  57.0874 0001271 266.7484 188.3758 15.50593947  5294
STARLINK-36458          
1 67343U 26003K   26035.25004630 -.00067019  00000+0 -11459-2 0  9996
2 67343  42.9994  57.0828 0001231 265.5644 191.4788 15.50591299  5303
STARLINK-36422          
1 67344U 26003L   26035.25004630 -.00072276  00000+0 -12370-2 0  9991
2 67344  42.9994  57.0768 0001219 268.6515 190.3095 15.50592399  5293
STARLINK-35676          
1 67345U 26003M   26035.25004630 -.00073649  00000+0 -12607-2 0  9990
2 67345  42.9993  57.0728 0001482 265.9270 194.9499 15.50594650  5299
